O3B MPOWER F1           
1 54755U 22174A   23255.67599319 -.00000028  00000+0  00000+0 0  9997
2 54755   0.0457  16.2000 0004755 169.7658 139.8651  5.00118548 14905
